0 AFRICASAT 1 (MEASAT 1)
1 23765U 96002B   13282.96490368  .00000068  00000-0  10000-3 0  6783
2 23765 005.2017 060.9510 0001718 179.6330 180.4472 00.99060470 64941
0 AFRICASAT 1 (MEASAT 1)
1 23765U 96002B   13282.96494303  .00000000  00000-0  10000-3 0  6793
2 23765 005.2035 060.9510 0002304 185.2285 174.8544 00.99057112 64941
0 AFRICASAT 1 (MEASAT 1)
1 23765U 96002B   13284.98382959  .00000045  00000-0  10000-3 0  6801
2 23765 005.2057 060.9318 0001750 178.7501 181.3456 00.99061220 64965
0 AFRICASAT 1 (MEASAT 1)
1 23765U 96002B   13287.00269536  .00000009  00000-0  10000-3 0  6813
2 23765 005.2097 060.9126 0001764 178.4965 181.6010 00.99062122 64985
0 AFRICASAT 1 (MEASAT 1)
1 23765U 96002B   13290.03085989 -.00000057  00000-0  10000-3 0  6823
2 23765 005.2162 060.8823 0001796 178.9535 181.1084 00.99063473 65015
0 AFRICASAT 1 (MEASAT 1)
1 23765U 96002B   13295.07761146 -.00000171  00000-0  10000-3 0  6836
2 23765 005.2268 060.8320 0001867 177.2594 182.7132 00.99065146 65065
